{"type": "FeatureCollection", "features": [ {"type": "Feature", "properties": {"norad_id": 29973, "name": "FENGYUN 1C DEB", "group": "fengyun-1c-debris", "lat": -45.37163717724615, "lon": -1.866838048734882, "alt_km": 920.3106848706066, "timestamp": "2025-12-14T14:39:29.643308+00:00", "meta": {"OBJECT_NAME": "FENGYUN 1C DEB", "OBJECT_ID": "1999-025KX", "EPOCH": "2025-12-13T23:46:34.594752", "MEAN_MOTION": 14.06539605, "ECCENTRICITY": 0.00593316, "INCLINATION": 98.8424, "RA_OF_ASC_NODE": 348.4541, "ARG_OF_PERICENTER": 145.4545, "MEAN_ANOMALY": 270.371, "EPHEMERIS_TYPE": 0, "CLASSIFICATION_TYPE": "U", "NORAD_CAT_ID": 29973, "ELEMENT_SET_NO": 999, "REV_AT_EPOCH": 96736, "BSTAR": 0.00071480846, "MEAN_MOTION_DOT": 1.16e-05, "MEAN_MOTION_DDOT": 0}, "tle": {"line1": "1 29973U 99025KX  25347.99067818  .00001160  00000+0  71481-3 0  9995", "line2": "2 29973  98.8424 348.4541 0059331 145.4545 270.3710 14.06539605967365"}}, "geometry": {"type": "Point", "coordinates": [-1.866838048734882, -45.37163717724615]}}, {"type": "Feature", "properties": {"norad_id": 29974, "name": "FENGYUN 1C DEB", "group": "fengyun-1c-debris", "lat": -48.18326486890899, "lon": -117.30222923969868, "alt_km": 879.3419769575785, "timestamp": "2025-12-14T14:39:29.643318+00:00", "meta": {"OBJECT_NAME": "FENGYUN 1C DEB", "OBJECT_ID": "1999-025KY", "EPOCH": "2025-12-13T17:48:38.179584", "MEAN_MOTION": 14.14854909, "ECCENTRICITY": 0.00467296, "INCLINATION": 98.8938, "RA_OF_ASC_NODE": 71.9126, "ARG_OF_PERICENTER": 79.3495, "MEAN_ANOMALY": 47.2899, "EPHEMERIS_TYPE": 0, "CLASSIFICATION_TYPE": "U", "NORAD_CAT_ID": 29974, "ELEMENT_SET_NO": 999, "REV_AT_EPOCH": 96939, "BSTAR": 0.0014113568, "MEAN_MOTION_DOT": 2.71e-05, "MEAN_MOTION_DDOT": 0}, "tle": {"line1": "1 29974U 99025KY  25347.74210856  .00002710  00000+0  14114-2 0  9992", "line2": "2 29974  98.8938  71.9126 0046729  79.3495  47.2899 14.14854909969399"}}, "geometry": {"type": "Point", "coordinates": [-117.30222923969868, -48.18326486890899]}}, {"type": "Feature", "properties": {"norad_id": 29975, "name": "FENGYUN 1C DEB", "group": "fengyun-1c-debris", "lat": 64.87244926027175, "lon": -129.75094705194726, "alt_km": 914.4063262439868, "timestamp": "2025-12-14T14:39:29.643328+00:00", "meta": {"OBJECT_NAME": "FENGYUN 1C DEB", "OBJECT_ID": "1999-025KZ", "EPOCH": "2025-12-13T16:23:02.921280", "MEAN_MOTION": 13.98025917, "ECCENTRICITY": 0.01135068, "INCLINATION": 99.3394, "RA_OF_ASC_NODE": 28.7645, "ARG_OF_PERICENTER": 11.1706, "MEAN_ANOMALY": 112.5232, "EPHEMERIS_TYPE": 0, "CLASSIFICATION_TYPE": "U", "NORAD_CAT_ID": 29975, "ELEMENT_SET_NO": 999, "REV_AT_EPOCH": 96450, "BSTAR": 7.8423779e-05, "MEAN_MOTION_DOT": 7.1e-07, "MEAN_MOTION_DDOT": 0}, "tle": {"line1": "1 29975U 99025KZ  25347.68267270  .00000071  00000+0  78424-4 0  9992", "line2": "2 29975  99.3394  28.7645 0113506  11.1706 112.5232 13.98025917964500"}}, "geometry": {"type": "Point", "coordinates": [-129.75094705194726, 64.87244926027175]}}, {"type": "Feature", "properties": {"norad_id": 29976, "name": "FENGYUN 1C DEB", "group": "fengyun-1c-debris", "lat": -66.63618199459233, "lon": 7.182678932143079, "alt_km": 798.9886759927958, "timestamp": "2025-12-14T14:39:29.643338+00:00", "meta": {"OBJECT_NAME": "FENGYUN 1C DEB", "OBJECT_ID": "1999-025LA", "EPOCH": "2025-12-13T23:48:18.712800", "MEAN_MOTION": 13.98109837, "ECCENTRICITY": 0.02674755, "INCLINATION": 98.918, "RA_OF_ASC_NODE": 345.267, "ARG_OF_PERICENTER": 236.0424, "MEAN_ANOMALY": 179.9157, "EPHEMERIS_TYPE": 0, "CLASSIFICATION_TYPE": "U", "NORAD_CAT_ID": 29976, "ELEMENT_SET_NO": 999, "REV_AT_EPOCH": 96354, "BSTAR": 0.00035484293, "MEAN_MOTION_DOT": 6.4e-06, "MEAN_MOTION_DDOT": 0}, "tle": {"line1": "1 29976U 99025LA  25347.99188325  .00000640  00000+0  35484-3 0  9990", "line2": "2 29976  98.9180 345.2670 0267475 236.0424 179.9157 13.98109837963544"}}, "geometry": {"type": "Point", "coordinates": [7.182678932143079, -66.63618199459233]}}, {"type": "Feature", "properties": {"norad_id": 29977, "name": "FENGYUN 1C DEB", "group": "fengyun-1c-debris", "lat": -81.35645940644773, "lon": -45.818746182534056, "alt_km": 794.0379405001104, "timestamp": "2025-12-14T14:39:29.643348+00:00", "meta": {"OBJECT_NAME": "FENGYUN 1C DEB", "OBJECT_ID": "1999-025LB", "EPOCH": "2025-12-13T13:35:46.324896", "MEAN_MOTION": 14.05091081, "ECCENTRICITY": 0.01284108, "INCLINATION": 98.3974, "RA_OF_ASC_NODE": 209.5543, "ARG_OF_PERICENTER": 254.5911, "MEAN_ANOMALY": 133.7447, "EPHEMERIS_TYPE": 0, "CLASSIFICATION_TYPE": "U", "NORAD_CAT_ID": 29977, "ELEMENT_SET_NO": 999, "REV_AT_EPOCH": 96372, "BSTAR": 0.0017764194, "MEAN_MOTION_DOT": 3.044e-05, "MEAN_MOTION_DDOT": 0}, "tle": {"line1": "1 29977U 99025LB  25347.56650839  .00003044  00000+0  17764-2 0  9999", "line2": "2 29977  98.3974 209.5543 0128410 254.5911 133.7447 14.05091081963722"}}, "geometry": {"type": "Point", "coordinates": [-45.818746182534056, -81.35645940644773]}}, {"type": "Feature", "properties": {"norad_id": 29978, "name": "FENGYUN 1C DEB", "group": "fengyun-1c-debris", "lat": -69.27353934313128, "lon": 63.970777694618164, "alt_km": 941.5075323615283, "timestamp": "2025-12-14T14:39:29.643358+00:00", "meta": {"OBJECT_NAME": "FENGYUN 1C DEB", "OBJECT_ID": "1999-025LC", "EPOCH": "2025-12-13T18:54:35.191584", "MEAN_MOTION": 13.95906944, "ECCENTRICITY": 0.0076653, "INCLINATION": 99.0612, "RA_OF_ASC_NODE": 38.218, "ARG_OF_PERICENTER": 49.4536, "MEAN_ANOMALY": 67.2807, "EPHEMERIS_TYPE": 0, "CLASSIFICATION_TYPE": "U", "NORAD_CAT_ID": 29978, "ELEMENT_SET_NO": 999, "REV_AT_EPOCH": 96331, "BSTAR": 4.8288327e-05, "MEAN_MOTION_DOT": 2.4e-07, "MEAN_MOTION_DDOT": 0}, "tle": {"line1": "1 29978U 99025LC  25347.78790731  .00000024  00000+0  48288-4 0  9992", "line2": "2 29978  99.0612  38.2180 0076653  49.4536  67.2807 13.95906944963316"}}, "geometry": {"type": "Point", "coordinates": [63.970777694618164, -69.27353934313128]}}, {"type": "Feature", "properties": {"norad_id": 29979, "name": "FENGYUN 1C DEB", "group": "fengyun-1c-debris", "lat": 32.65378945765998, "lon": -162.84879046934412, "alt_km": 727.1948718677013, "timestamp": "2025-12-14T14:39:29.643368+00:00", "meta": {"OBJECT_NAME": "FENGYUN 1C DEB", "OBJECT_ID": "1999-025LD", "EPOCH": "2025-12-13T23:10:35.211648", "MEAN_MOTION": 14.25966495, "ECCENTRICITY": 0.01076484, "INCLINATION": 98.3705, "RA_OF_ASC_NODE": 11.1206, "ARG_OF_PERICENTER": 159.3493, "MEAN_ANOMALY": 278.1479, "EPHEMERIS_TYPE": 0, "CLASSIFICATION_TYPE": "U", "NORAD_CAT_ID": 29979, "ELEMENT_SET_NO": 999, "REV_AT_EPOCH": 98091, "BSTAR": 0.00056039011, "MEAN_MOTION_DOT": 1.38e-05, "MEAN_MOTION_DDOT": 0}, "tle": {"line1": "1 29979U 99025LD  25347.96568532  .00001380  00000+0  56039-3 0  9993", "line2": "2 29979  98.3705  11.1206 0107648 159.3493 278.1479 14.25966495980917"}}, "geometry": {"type": "Point", "coordinates": [-162.84879046934412, 32.65378945765998]}}, {"type": "Feature", "properties": {"norad_id": 29980, "name": "FENGYUN 1C DEB", "group": "fengyun-1c-debris", "lat": -53.94666543783591, "lon": 169.59194023503997, "alt_km": 849.6727753450759, "timestamp": "2025-12-14T14:39:29.643378+00:00", "meta": {"OBJECT_NAME": "FENGYUN 1C DEB", "OBJECT_ID": "1999-025LE", "EPOCH": "2025-12-14T00:08:46.041216", "MEAN_MOTION": 14.06316316, "ECCENTRICITY": 0.00869332, "INCLINATION": 98.5514, "RA_OF_ASC_NODE": 157.0922, "ARG_OF_PERICENTER": 244.1942, "MEAN_ANOMALY": 240.5708, "EPHEMERIS_TYPE": 0, "CLASSIFICATION_TYPE": "U", "NORAD_CAT_ID": 29980, "ELEMENT_SET_NO": 999, "REV_AT_EPOCH": 97010, "BSTAR": 0.00037380572, "MEAN_MOTION_DOT": 5.96e-06, "MEAN_MOTION_DDOT": 0}, "tle": {"line1": "1 29980U 99025LE  25348.00608844  .00000596  00000+0  37381-3 0  9999", "line2": "2 29980  98.5514 157.0922 0086933 244.1942 240.5708 14.06316316970107"}}, "geometry": {"type": "Point", "coordinates": [169.59194023503997, -53.94666543783591]}}, {"type": "Feature", "properties": {"norad_id": 29982, "name": "FENGYUN 1C DEB", "group": "fengyun-1c-debris", "lat": 37.873543955045356, "lon": 162.7508656675867, "alt_km": 704.9370595327118, "timestamp": "2025-12-14T14:39:29.643389+00:00", "meta": {"OBJECT_NAME": "FENGYUN 1C DEB", "OBJECT_ID": "1999-025LG", "EPOCH": "2025-12-14T00:27:03.701376", "MEAN_MOTION": 14.66894156, "ECCENTRICITY": 0.01218293, "INCLINATION": 99.4017, "RA_OF_ASC_NODE": 169.4767, "ARG_OF_PERICENTER": 284.3966, "MEAN_ANOMALY": 228.6397, "EPHEMERIS_TYPE": 0, "CLASSIFICATION_TYPE": "U", "NORAD_CAT_ID": 29982, "ELEMENT_SET_NO": 999, "REV_AT_EPOCH": 302, "BSTAR": 0.00075166381, "MEAN_MOTION_DOT": 4.626e-05, "MEAN_MOTION_DDOT": 0}, "tle": {"line1": "1 29982U 99025LG  25348.01879284  .00004626  00000+0  75166-3 0  9991", "line2": "2 29982  99.4017 169.4767 0121829 284.3966 228.6397 14.66894156  3025"}}, "geometry": {"type": "Point", "coordinates": [162.7508656675867, 37.873543955045356]}}, {"type": "Feature", "properties": {"norad_id": 29985, "name": "FENGYUN 1C DEB", "group": "fengyun-1c-debris", "lat": -81.22421728242689, "lon": 86.87515471113929, "alt_km": 857.6989276345766, "timestamp": "2025-12-14T14:39:29.643399+00:00", "meta": {"OBJECT_NAME": "FENGYUN 1C DEB", "OBJECT_ID": "1999-025LK", "EPOCH": "2025-12-14T00:03:59.869728", "MEAN_MOTION": 14.10324066, "ECCENTRICITY": 0.00281694, "INCLINATION": 98.7107, "RA_OF_ASC_NODE": 3.0236, "ARG_OF_PERICENTER": 205.3814, "MEAN_ANOMALY": 220.2386, "EPHEMERIS_TYPE": 0, "CLASSIFICATION_TYPE": "U", "NORAD_CAT_ID": 29985, "ELEMENT_SET_NO": 999, "REV_AT_EPOCH": 97366, "BSTAR": 8.5817656e-05, "MEAN_MOTION_DOT": 1.1e-06, "MEAN_MOTION_DDOT": 0}, "tle": {"line1": "1 29985U 99025LK  25348.00277627  .00000110  00000+0  85818-4 0  9996", "line2": "2 29985  98.7107   3.0236 0028169 205.3814 220.2386 14.10324066973661"}}, "geometry": {"type": "Point", "coordinates": [86.87515471113929, -81.22421728242689]}}]}